{
  "type": "FeatureCollection",
  "features": [
    {
      "type": "Feature",
      "properties": {
        "norad_id": 37919,
        "name": "FENGYUN 1C DEB",
        "group": "fengyun-1c-debris",
        "lat": 23.414452862678015,
        "lon": 100.44920533986883,
        "alt_km": 818.6245831223623,
        "timestamp": "2025-12-04T19:33:59.891246+00:00",
        "meta_object_name": "FENGYUN 1C DEB",
        "meta_object_id": "1999-025ENU",
        "meta_epoch": "2025-12-01T13:25:03.337824",
        "meta_mean_motion": 14.26713739,
        "meta_eccentricity": 0.00500779,
        "meta_inclination": 99.0554,
        "meta_ra_of_asc_node": 273.1218,
        "meta_arg_of_pericenter": 48.0524,
        "meta_mean_anomaly": 312.4907,
        "meta_ephemeris_type": 0,
        "meta_classification_type": "U",
        "meta_norad_cat_id": 37919,
        "meta_element_set_no": 999,
        "meta_rev_at_epoch": 64749,
        "meta_bstar": 0.00057424201,
        "meta_mean_motion_dot": 1.361e-05,
        "meta_mean_motion_ddot": 0,
        "tle_line1": "1 37919U 99025ENU 25335.55906641  .00001361  00000+0  57424-3 0  9993",
        "tle_line2": "2 37919  99.0554 273.1218 0050077  48.0524 312.4907 14.26713739647498"
      },
      "geometry": {
        "type": "Point",
        "coordinates": [
          100.44920533986883,
          23.414452862678015
        ]
      }
    },
    {
      "type": "Feature",
      "properties": {
        "norad_id": 37921,
        "name": "FENGYUN 1C DEB",
        "group": "fengyun-1c-debris",
        "lat": -80.97047788233724,
        "lon": 110.53571923375182,
        "alt_km": 970.9882693565069,
        "timestamp": "2025-12-04T19:33:59.891255+00:00",
        "meta_object_name": "FENGYUN 1C DEB",
        "meta_object_id": "1999-025ENW",
        "meta_epoch": "2025-12-02T09:29:00.620448",
        "meta_mean_motion": 13.95145191,
        "meta_eccentricity": 0.00843513,
        "meta_inclination": 99.0237,
        "meta_ra_of_asc_node": 17.6982,
        "meta_arg_of_pericenter": 126.7375,
        "meta_mean_anomaly": 234.157,
        "meta_ephemeris_type": 0,
        "meta_classification_type": "U",
        "meta_norad_cat_id": 37921,
        "meta_element_set_no": 999,
        "meta_rev_at_epoch": 63003,
        "meta_bstar": 0.00035853699,
        "meta_mean_motion_dot": 4.56e-06,
        "meta_mean_motion_ddot": 0,
        "tle_line1": "1 37921U 99025ENW 25336.39514607  .00000456  00000+0  35854-3 0  9993",
        "tle_line2": "2 37921  99.0237  17.6982 0084351 126.7375 234.1570 13.95145191630032"
      },
      "geometry": {
        "type": "Point",
        "coordinates": [
          110.53571923375182,
          -80.97047788233724
        ]
      }
    },
    {
      "type": "Feature",
      "properties": {
        "norad_id": 37925,
        "name": "FENGYUN 1C DEB",
        "group": "fengyun-1c-debris",
        "lat": 37.22783374226943,
        "lon": 33.915576469221456,
        "alt_km": 655.3025149284431,
        "timestamp": "2025-12-04T19:33:59.891264+00:00",
        "meta_object_name": "FENGYUN 1C DEB",
        "meta_object_id": "1999-025EPA",
        "meta_epoch": "2025-12-03T08:51:08.944992",
        "meta_mean_motion": 14.79858027,
        "meta_eccentricity": 0.0057842,
        "meta_inclination": 99.0872,
        "meta_ra_of_asc_node": 205.2959,
        "meta_arg_of_pericenter": 11.9768,
        "meta_mean_anomaly": 348.28,
        "meta_ephemeris_type": 0,
        "meta_classification_type": "U",
        "meta_norad_cat_id": 37925,
        "meta_element_set_no": 999,
        "meta_rev_at_epoch": 65544,
        "meta_bstar": 0.0022468503,
        "meta_mean_motion_dot": 0.00017399,
        "meta_mean_motion_ddot": 0,
        "tle_line1": "1 37925U 99025EPA 25337.36885353  .00017399  00000+0  22469-2 0  9995",
        "tle_line2": "2 37925  99.0872 205.2959 0057842  11.9768 348.2800 14.79858027655443"
      },
      "geometry": {
        "type": "Point",
        "coordinates": [
          33.915576469221456,
          37.22783374226943
        ]
      }
    },
    {
      "type": "Feature",
      "properties": {
        "norad_id": 37926,
        "name": "FENGYUN 1C DEB",
        "group": "fengyun-1c-debris",
        "lat": 37.00250678060545,
        "lon": -131.30992033091468,
        "alt_km": 816.2833150192137,
        "timestamp": "2025-12-04T19:33:59.891273+00:00",
        "meta_object_name": "FENGYUN 1C DEB",
        "meta_object_id": "1999-025EPB",
        "meta_epoch": "2025-12-03T04:25:32.954880",
        "meta_mean_motion": 14.24106598,
        "meta_eccentricity": 0.0053443,
        "meta_inclination": 98.7252,
        "meta_ra_of_asc_node": 40.4255,
        "meta_arg_of_pericenter": 248.7296,
        "meta_mean_anomaly": 177.8469,
        "meta_ephemeris_type": 0,
        "meta_classification_type": "U",
        "meta_norad_cat_id": 37926,
        "meta_element_set_no": 999,
        "meta_rev_at_epoch": 74134,
        "meta_bstar": 0.0021991,
        "meta_mean_motion_dot": 5.093e-05,
        "meta_mean_motion_ddot": 0,
        "tle_line1": "1 37926U 99025EPB 25337.18440920  .00005093  00000+0  21991-2 0  9990",
        "tle_line2": "2 37926  98.7252  40.4255 0053443 248.7296 177.8469 14.24106598741340"
      },
      "geometry": {
        "type": "Point",
        "coordinates": [
          -131.30992033091468,
          37.00250678060545
        ]
      }
    },
    {
      "type": "Feature",
      "properties": {
        "norad_id": 37927,
        "name": "FENGYUN 1C DEB",
        "group": "fengyun-1c-debris",
        "lat": -22.57069742837354,
        "lon": -61.84635323231186,
        "alt_km": 663.0060131174205,
        "timestamp": "2025-12-04T19:33:59.891282+00:00",
        "meta_object_name": "FENGYUN 1C DEB",
        "meta_object_id": "1999-025EPC",
        "meta_epoch": "2025-11-29T16:11:45.032064",
        "meta_mean_motion": 14.70717717,
        "meta_eccentricity": 0.00076239,
        "meta_inclination": 98.8072,
        "meta_ra_of_asc_node": 116.2969,
        "meta_arg_of_pericenter": 304.8102,
        "meta_mean_anomaly": 55.2384,
        "meta_ephemeris_type": 0,
        "meta_classification_type": "U",
        "meta_norad_cat_id": 37927,
        "meta_element_set_no": 999,
        "meta_rev_at_epoch": 64924,
        "meta_bstar": 0.0038923403,
        "meta_mean_motion_dot": 0.00023758,
        "meta_mean_motion_ddot": 0,
        "tle_line1": "1 37927U 99025EPC 25333.67482676  .00023758  00000+0  38923-2 0  9996",
        "tle_line2": "2 37927  98.8072 116.2969 0007623 304.8102  55.2384 14.70717717649248"
      },
      "geometry": {
        "type": "Point",
        "coordinates": [
          -61.84635323231186,
          -22.57069742837354
        ]
      }
    },
    {
      "type": "Feature",
      "properties": {
        "norad_id": 37928,
        "name": "FENGYUN 1C DEB",
        "group": "fengyun-1c-debris",
        "lat": 40.269031314361456,
        "lon": -154.5180161284083,
        "alt_km": 714.4008050373141,
        "timestamp": "2025-12-04T19:33:59.891290+00:00",
        "meta_object_name": "FENGYUN 1C DEB",
        "meta_object_id": "1999-025EPD",
        "meta_epoch": "2025-11-28T09:38:34.088352",
        "meta_mean_motion": 14.37023237,
        "meta_eccentricity": 0.00733565,
        "meta_inclination": 98.9159,
        "meta_ra_of_asc_node": 206.4819,
        "meta_arg_of_pericenter": 74.7645,
        "meta_mean_anomaly": 286.1636,
        "meta_ephemeris_type": 0,
        "meta_classification_type": "U",
        "meta_norad_cat_id": 37928,
        "meta_element_set_no": 999,
        "meta_rev_at_epoch": 80986,
        "meta_bstar": 0.00065957038,
        "meta_mean_motion_dot": 1.971e-05,
        "meta_mean_motion_ddot": 0,
        "tle_line1": "1 37928U 99025EPD 25332.40178343  .00001971  00000+0  65957-3 0  9991",
        "tle_line2": "2 37928  98.9159 206.4819 0073356  74.7645 286.1636 14.37023237809864"
      },
      "geometry": {
        "type": "Point",
        "coordinates": [
          -154.5180161284083,
          40.269031314361456
        ]
      }
    },
    {
      "type": "Feature",
      "properties": {
        "norad_id": 38116,
        "name": "FENGYUN 1C DEB",
        "group": "fengyun-1c-debris",
        "lat": -80.5146551169933,
        "lon": 84.33674100580633,
        "alt_km": 855.6710654302715,
        "timestamp": "2025-12-04T19:33:59.891299+00:00",
        "meta_object_name": "FENGYUN 1C DEB",
        "meta_object_id": "1999-025EPM",
        "meta_epoch": "2025-11-28T20:45:55.302624",
        "meta_mean_motion": 14.16973073,
        "meta_eccentricity": 0.0072,
        "meta_inclination": 98.7141,
        "meta_ra_of_asc_node": 11.879,
        "meta_arg_of_pericenter": 186.1596,
        "meta_mean_anomaly": 351.8835,
        "meta_ephemeris_type": 0,
        "meta_classification_type": "U",
        "meta_norad_cat_id": 38116,
        "meta_element_set_no": 999,
        "meta_rev_at_epoch": 64288,
        "meta_bstar": 0.00050837388,
        "meta_mean_motion_dot": 1.004e-05,
        "meta_mean_motion_ddot": 0,
        "tle_line1": "1 38116U 99025EPM 25332.86522341  .00001004  00000+0  50837-3 0  9990",
        "tle_line2": "2 38116  98.7141  11.8790 0072000 186.1596 351.8835 14.16973073642884"
      },
      "geometry": {
        "type": "Point",
        "coordinates": [
          84.33674100580633,
          -80.5146551169933
        ]
      }
    }
  ]
}